[{"OBJECT_NAME":"TIANMU-1 19","OBJECT_ID":"2023-208A","EPOCH":"2026-03-09T22:13:36.801696","MEAN_MOTION":15.2984143,"ECCENTRICITY":0.00039292,"INCLINATION":97.4383,"RA_OF_ASC_NODE":184.9132,"ARG_OF_PERICENTER":316.2611,"MEAN_ANOMALY":43.8317,"EPHEMERIS_TYPE":0,"CLASSIFICATION_TYPE":"U","NORAD_CAT_ID":58660,"ELEMENT_SET_NO":999,"REV_AT_EPOCH":12214,"BSTAR":0.00040995676,"MEAN_MOTION_DOT":0.00011779,"MEAN_MOTION_DDOT":0},{"OBJECT_NAME":"STARLINK-33913","OBJECT_ID":"2025-176T","EPOCH":"2026-03-09T11:23:16.276416","MEAN_MOTION":15.30178168,"ECCENTRICITY":0.00011604,"INCLINATION":53.1584,"RA_OF_ASC_NODE":156.1278,"ARG_OF_PERICENTER":63.2631,"MEAN_ANOMALY":296.8489,"EPHEMERIS_TYPE":0,"CLASSIFICATION_TYPE":"U","NORAD_CAT_ID":65215,"ELEMENT_SET_NO":999,"REV_AT_EPOCH":3305,"BSTAR":0.000851099,"MEAN_MOTION_DOT":0.00024915,"MEAN_MOTION_DDOT":0}]
